[{"OBJECT_NAME":"METEOSAT-11 (MSG-4)","OBJECT_ID":"2015-034A","EPOCH":"2026-03-28T19:57:48.574944","MEAN_MOTION":1.00273826,"ECCENTRICITY":0.000178,"INCLINATION":2.9995,"RA_OF_ASC_NODE":71.5348,"ARG_OF_PERICENTER":284.8799,"MEAN_ANOMALY":138.506,"EPHEMERIS_TYPE":0,"CLASSIFICATION_TYPE":"U","NORAD_CAT_ID":40732,"ELEMENT_SET_NO":999,"REV_AT_EPOCH":641,"BSTAR":0,"MEAN_MOTION_DOT":4.5e-7,"MEAN_MOTION_DDOT":0},{"OBJECT_NAME":"ELEKTRO-L 2","OBJECT_ID":"2015-074A","EPOCH":"2026-03-28T18:08:23.507232","MEAN_MOTION":1.00271736,"ECCENTRICITY":0.0002867,"INCLINATION":6.4928,"RA_OF_ASC_NODE":71.4977,"ARG_OF_PERICENTER":245.3679,"MEAN_ANOMALY":126.9051,"EPHEMERIS_TYPE":0,"CLASSIFICATION_TYPE":"U","NORAD_CAT_ID":41105,"ELEMENT_SET_NO":999,"REV_AT_EPOCH":3770,"BSTAR":0,"MEAN_MOTION_DOT":-1.32e-6,"MEAN_MOTION_DDOT":0},{"OBJECT_NAME":"INSAT-3DR","OBJECT_ID":"2016-054A","EPOCH":"2026-03-28T20:16:11.540928","MEAN_MOTION":1.00271743,"ECCENTRICITY":0.0012718,"INCLINATION":0.1117,"RA_OF_ASC_NODE":87.6682,"ARG_OF_PERICENTER":195.0763,"MEAN_ANOMALY":281.5337,"EPHEMERIS_TYPE":0,"CLASSIFICATION_TYPE":"U","NORAD_CAT_ID":41752,"ELEMENT_SET_NO":999,"REV_AT_EPOCH":3501,"BSTAR":0,"MEAN_MOTION_DOT":-9.6e-7,"MEAN_MOTION_DDOT":0},{"OBJECT_NAME":"HIMAWARI-9","OBJECT_ID":"2016-064A","EPOCH":"2026-03-28T20:35:17.210112","MEAN_MOTION":1.00272938,"ECCENTRICITY":0.0001029,"INCLINATION":0.0279,"RA_OF_ASC_NODE":132.5012,"ARG_OF_PERICENTER":232.4064,"MEAN_ANOMALY":270.9438,"EPHEMERIS_TYPE":0,"CLASSIFICATION_TYPE":"U","NORAD_CAT_ID":41836,"ELEMENT_SET_NO":999,"REV_AT_EPOCH":3440,"BSTAR":0,"MEAN_MOTION_DOT":-2.94e-6,"MEAN_MOTION_DDOT":0},{"OBJECT_NAME":"GOES 16","OBJECT_ID":"2016-071A","EPOCH":"2026-03-28T15:59:58.320672","MEAN_MOTION":1.00271531,"ECCENTRICITY":0.0002188,"INCLINATION":0.1579,"RA_OF_ASC_NODE":85.4996,"ARG_OF_PERICENTER":233.0864,"MEAN_ANOMALY":2.7816,"EPHEMERIS_TYPE":0,"CLASSIFICATION_TYPE":"U","NORAD_CAT_ID":41866,"ELEMENT_SET_NO":999,"REV_AT_EPOCH":3429,"BSTAR":0,"MEAN_MOTION_DOT":-1.1e-6,"MEAN_MOTION_DDOT":0},{"OBJECT_NAME":"FENGYUN 4A","OBJECT_ID":"2016-077A","EPOCH":"2026-03-28T21:08:38.737824","MEAN_MOTION":1.0026613,"ECCENTRICITY":0.0007479,"INCLINATION":2.1191,"RA_OF_ASC_NODE":81.081,"ARG_OF_PERICENTER":136.1062,"MEAN_ANOMALY":49.9295,"EPHEMERIS_TYPE":0,"CLASSIFICATION_TYPE":"U","NORAD_CAT_ID":41882,"ELEMENT_SET_NO":999,"REV_AT_EPOCH":3412,"BSTAR":0,"MEAN_MOTION_DOT":-3.75e-6,"MEAN_MOTION_DDOT":0},{"OBJECT_NAME":"CYGFM05","OBJECT_ID":"2016-078A","EPOCH":"2026-03-28T16:02:08.369088","MEAN_MOTION":15.53096635,"ECCENTRICITY":0.0005634,"INCLINATION":34.9579,"RA_OF_ASC_NODE":72.3676,"ARG_OF_PERICENTER":119.7594,"MEAN_ANOMALY":240.369,"EPHEMERIS_TYPE":0,"CLASSIFICATION_TYPE":"U","NORAD_CAT_ID":41884,"ELEMENT_SET_NO":999,"REV_AT_EPOCH":51621,"BSTAR":0.00044065,"MEAN_MOTION_DOT":0.0002854,"MEAN_MOTION_DDOT":0},{"OBJECT_NAME":"CYGFM04","OBJECT_ID":"2016-078B","EPOCH":"2026-03-28T05:22:40.093824","MEAN_MOTION":15.56993058,"ECCENTRICITY":0.0005441,"INCLINATION":34.9339,"RA_OF_ASC_NODE":46.6609,"ARG_OF_PERICENTER":165.0724,"MEAN_ANOMALY":195.0161,"EPHEMERIS_TYPE":0,"CLASSIFICATION_TYPE":"U","NORAD_CAT_ID":41885,"ELEMENT_SET_NO":999,"REV_AT_EPOCH":51635,"BSTAR":0.00044885,"MEAN_MOTION_DOT":0.00033593,"MEAN_MOTION_DDOT":0},{"OBJECT_NAME":"CYGFM02","OBJECT_ID":"2016-078C","EPOCH":"2026-03-28T06:58:01.744608","MEAN_MOTION":15.59139207,"ECCENTRICITY":0.0006399,"INCLINATION":34.9425,"RA_OF_ASC_NODE":42.7135,"ARG_OF_PERICENTER":162.9543,"MEAN_ANOMALY":197.1398,"EPHEMERIS_TYPE":0,"CLASSIFICATION_TYPE":"U","NORAD_CAT_ID":41886,"ELEMENT_SET_NO":999,"REV_AT_EPOCH":51651,"BSTAR":0.00046051232,"MEAN_MOTION_DOT":0.00037408,"MEAN_MOTION_DDOT":0},{"OBJECT_NAME":"CYGFM01","OBJECT_ID":"2016-078D","EPOCH":"2026-03-28T08:49:38.889408","MEAN_MOTION":15.53642207,"ECCENTRICITY":0.00051922,"INCLINATION":34.9408,"RA_OF_ASC_NODE":76.0121,"ARG_OF_PERICENTER":107.1152,"MEAN_ANOMALY":253.014,"EPHEMERIS_TYPE":0,"CLASSIFICATION_TYPE":"U","NORAD_CAT_ID":41887,"ELEMENT_SET_NO":999,"REV_AT_EPOCH":51611,"BSTAR":0.00042816803,"MEAN_MOTION_DOT":0.00028284,"MEAN_MOTION_DDOT":0},{"OBJECT_NAME":"CYGFM08","OBJECT_ID":"2016-078E","EPOCH":"2026-03-28T07:46:45.289056","MEAN_MOTION":15.55803518,"ECCENTRICITY":0.00070152,"INCLINATION":34.9445,"RA_OF_ASC_NODE":57.793,"ARG_OF_PERICENTER":140.4458,"MEAN_ANOMALY":219.6779,"EPHEMERIS_TYPE":0,"CLASSIFICATION_TYPE":"U","NORAD_CAT_ID":41888,"ELEMENT_SET_NO":999,"REV_AT_EPOCH":51635,"BSTAR":0.00043945185,"MEAN_MOTION_DOT":0.00031465,"MEAN_MOTION_DDOT":0},{"OBJECT_NAME":"CYGFM07","OBJECT_ID":"2016-078G","EPOCH":"2026-03-28T06:54:25.909632","MEAN_MOTION":15.55879251,"ECCENTRICITY":0.00059252,"INCLINATION":34.9463,"RA_OF_ASC_NODE":46.4366,"ARG_OF_PERICENTER":163.6705,"MEAN_ANOMALY":196.4211,"EPHEMERIS_TYPE":0,"CLASSIFICATION_TYPE":"U","NORAD_CAT_ID":41890,"ELEMENT_SET_NO":999,"REV_AT_EPOCH":51637,"BSTAR":0.00043969505,"MEAN_MOTION_DOT":0.00031562,"MEAN_MOTION_DDOT":0},{"OBJECT_NAME":"CYGFM03","OBJECT_ID":"2016-078H","EPOCH":"2026-03-28T13:54:41.357376","MEAN_MOTION":15.55897266,"ECCENTRICITY":0.0004895,"INCLINATION":34.9418,"RA_OF_ASC_NODE":46.4736,"ARG_OF_PERICENTER":153.908,"MEAN_ANOMALY":206.1891,"EPHEMERIS_TYPE":0,"CLASSIFICATION_TYPE":"U","NORAD_CAT_ID":41891,"ELEMENT_SET_NO":999,"REV_AT_EPOCH":51639,"BSTAR":0.00045536,"MEAN_MOTION_DOT":0.00032707,"MEAN_MOTION_DDOT":0},{"OBJECT_NAME":"FENGYUN 3D","OBJECT_ID":"2017-072A","EPOCH":"2026-03-28T21:01:31.806912","MEAN_MOTION":14.19720061,"ECCENTRICITY":6.01e-5,"INCLINATION":99.006,"RA_OF_ASC_NODE":60.8775,"ARG_OF_PERICENTER":314.7195,"MEAN_ANOMALY":45.3932,"EPHEMERIS_TYPE":0,"CLASSIFICATION_TYPE":"U","NORAD_CAT_ID":43010,"ELEMENT_SET_NO":999,"REV_AT_EPOCH":43359,"BSTAR":-7.2569e-5,"MEAN_MOTION_DOT":-2.0e-6,"MEAN_MOTION_DDOT":0},{"OBJECT_NAME":"NOAA 20 (JPSS-1)","OBJECT_ID":"2017-073A","EPOCH":"2026-03-28T18:55:58.941696","MEAN_MOTION":14.19540945,"ECCENTRICITY":0.0001884,"INCLINATION":98.7713,"RA_OF_ASC_NODE":27.9887,"ARG_OF_PERICENTER":111.8812,"MEAN_ANOMALY":248.2565,"EPHEMERIS_TYPE":0,"CLASSIFICATION_TYPE":"U","NORAD_CAT_ID":43013,"ELEMENT_SET_NO":999,"REV_AT_EPOCH":43306,"BSTAR":6.0112e-5,"MEAN_MOTION_DOT":8.3e-7,"MEAN_MOTION_DDOT":0},{"OBJECT_NAME":"GOES 17","OBJECT_ID":"2018-022A","EPOCH":"2026-03-28T14:21:37.751040","MEAN_MOTION":1.00271175,"ECCENTRICITY":0.0001538,"INCLINATION":0.7312,"RA_OF_ASC_NODE":86.9387,"ARG_OF_PERICENTER":236.4458,"MEAN_ANOMALY":348.5274,"EPHEMERIS_TYPE":0,"CLASSIFICATION_TYPE":"U","NORAD_CAT_ID":43226,"ELEMENT_SET_NO":999,"REV_AT_EPOCH":2961,"BSTAR":0,"MEAN_MOTION_DOT":-2.01e-6,"MEAN_MOTION_DDOT":0},{"OBJECT_NAME":"FENGYUN 2H","OBJECT_ID":"2018-050A","EPOCH":"2026-03-28T20:59:38.496768","MEAN_MOTION":1.00270326,"ECCENTRICITY":0.0001697,"INCLINATION":2.8238,"RA_OF_ASC_NODE":80.0249,"ARG_OF_PERICENTER":172.9082,"MEAN_ANOMALY":327.3229,"EPHEMERIS_TYPE":0,"CLASSIFICATION_TYPE":"U","NORAD_CAT_ID":43491,"ELEMENT_SET_NO":999,"REV_AT_EPOCH":2863,"BSTAR":0,"MEAN_MOTION_DOT":-1.44e-6,"MEAN_MOTION_DDOT":0}]
