METEOSAT-11 (MSG-4)     
1 40732U 15034A   26087.83181221  .00000045  00000+0  00000+0 0  9995
2 40732   2.9995  71.5348 0001780 284.8799 138.5060  1.00273826  6416
ELEKTRO-L 2             
1 41105U 15074A   26087.75582763 -.00000132  00000+0  00000+0 0  9999
2 41105   6.4928  71.4977 0002867 245.3679 126.9051  1.00271736 37704
INSAT-3DR               
1 41752U 16054A   26087.84457802 -.00000096  00000+0  00000+0 0  9990
2 41752   0.1117  87.6682 0012718 195.0763 281.5337  1.00271743 35011
HIMAWARI-9              
1 41836U 16064A   26087.85783808 -.00000294  00000+0  00000+0 0  9993
2 41836   0.0279 132.5012 0001029 232.4064 270.9438  1.00272938 34405
GOES 16                 
1 41866U 16071A   26087.66664723 -.00000110  00000+0  00000+0 0  9994
2 41866   0.1579  85.4996 0002188 233.0864   2.7816  1.00271531 34297
FENGYUN 4A              
1 41882U 16077A   26087.88100391 -.00000375  00000+0  00000+0 0  9991
2 41882   2.1191  81.0810 0007479 136.1062  49.9295  1.00266130 34120
CYGFM05                 
1 41884U 16078A   26087.66815242  .00028540  00000+0  44065-3 0  9994
2 41884  34.9579  72.3676 0005634 119.7594 240.3690 15.53096635516211
CYGFM04                 
1 41885U 16078B   26087.22407516  .00033593  00000+0  44885-3 0  9992
2 41885  34.9339  46.6609 0005441 165.0724 195.0161 15.56993058516353
CYGFM02                 
1 41886U 16078C   26087.29029797  .00037408  00000+0  46051-3 0  9997
2 41886  34.9425  42.7135 0006399 162.9543 197.1398 15.59139207516513
CYGFM01                 
1 41887U 16078D   26087.36781122  .00028284  00000+0  42817-3 0  9991
2 41887  34.9408  76.0121 0005192 107.1152 253.0140 15.53642207516113
CYGFM08                 
1 41888U 16078E   26087.32413529  .00031465  00000+0  43945-3 0  9999
2 41888  34.9445  57.7930 0007015 140.4458 219.6779 15.55803518516352
CYGFM07                 
1 41890U 16078G   26087.28779988  .00031562  00000+0  43970-3 0  9997
2 41890  34.9463  46.4366 0005925 163.6705 196.4211 15.55879251516375
CYGFM03                 
1 41891U 16078H   26087.57964534  .00032707  00000+0  45536-3 0  9995
2 41891  34.9418  46.4736 0004895 153.9080 206.1891 15.55897266516391
FENGYUN 3D              
1 43010U 17072A   26087.87606258 -.00000200  00000+0 -72569-4 0  9996
2 43010  99.0060  60.8775 0000601 314.7195  45.3932 14.19720061433595
NOAA 20 (JPSS-1)        
1 43013U 17073A   26087.78887664  .00000083  00000+0  60112-4 0  9990
2 43013  98.7713  27.9887 0001884 111.8812 248.2565 14.19540945433062
GOES 17                 
1 43226U 18022A   26087.59835360 -.00000201  00000+0  00000+0 0  9994
2 43226   0.7312  86.9387 0001538 236.4458 348.5274  1.00271175 29617
FENGYUN 2H              
1 43491U 18050A   26087.87475112 -.00000144  00000+0  00000+0 0  9991
2 43491   2.8238  80.0249 0001697 172.9082 327.3229  1.00270326 28639
